NORAD_CAT_ID,OBJECT_NAME,OBJECT_TYPE,EPOCH,MEAN_MOTION,ECCENTRICITY,INCLINATION,RA_OF_ASC_NODE,ARG_OF_PERICENTER,MEAN_ANOMALY,BSTAR,MEAN_MOTION_DOT,MEAN_MOTION_DDOT,TLE_LINE0,TLE_LINE1,TLE_LINE2,SEMIMAJOR_AXIS,PERIOD,APOGEE,PERIGEE,DECAYED
55319.0,STARLINK-5196,PAYLOAD,2023-08-31 00:00:02,14.98320334,0.0002983,70.0012,168.3209,271.6084,68.8331,-0.0015355,-0.00018362,0.0,0 STARLINK-5196,1 55319U 23010BC  23243.00002315 -.00018362  00000-0 -15355-2 0  9997,2 55319  70.0012 168.3209 0002983 271.6084  68.8331 14.98320334  5937,6950.223,96.108,574.161,570.015,0.0
55319.0,STARLINK-5196,PAYLOAD,2023-08-31 01:41:25,14.9831637,0.0003045,69.9996,168.1454,269.2749,90.8061,-0.00013442,-1.696e-05,0.0,0 STARLINK-5196,1 55319U 23010BC  23243.07043749 -.00001696  00000-0 -13442-3 0  9998,2 55319  69.9996 168.1454 0003045 269.2749  90.8061 14.98316370 35401,6950.235,96.108,574.216,569.984,0.0
55319.0,STARLINK-5196,PAYLOAD,2023-09-01 01:43:28,14.98288851,0.0003442,69.9995,165.6213,265.5612,94.5153,-0.00021565,-2.662e-05,0.0,0 STARLINK-5196,1 55319U 23010BC  23244.07185785 -.00002662  00000-0 -21565-3 0  9995,2 55319  69.9995 165.6213 0003442 265.5612  94.5153 14.98288851 35555,6950.32,96.11,574.577,569.793,0.0
55319.0,STARLINK-5196,PAYLOAD,2023-09-01 17:44:44,14.98339172,0.0003766,70.0036,163.9397,274.5889,85.484,0.00068751,8.122e-05,0.0,0 STARLINK-5196,1 55319U 23010BC  23244.73940325  .00008122  00000-0  68751-3 0  9990,2 55319  70.0036 163.9397 0003766 274.5889  85.4840 14.98339172 35659,6950.165,96.106,574.647,569.412,0.0
55319.0,STARLINK-5196,PAYLOAD,2023-09-02 01:45:26,14.98330394,0.0002051,70.0023,163.095,271.1929,88.8995,0.00017479,1.993e-05,0.0,0 STARLINK-5196,1 55319U 23010BC  23245.07322330  .00001993  00000-0  17479-3 0  9998,2 55319  70.0023 163.0950 0002051 271.1929  88.8995 14.98330394 35706,6950.192,96.107,573.482,570.631,0.0
55319.0,STARLINK-5196,PAYLOAD,2023-09-02 11:22:14,14.98332533,0.0003245,69.9992,162.0845,272.4809,87.5978,0.00014056,1.585e-05,0.0,0 STARLINK-5196,1 55319U 23010BC  23245.47378220  .00001585  00000-0  14056-3 0  9996,2 55319  69.9992 162.0845 0003245 272.4809  87.5978 14.98332533 36959,6950.185,96.107,574.305,569.795,0.0
55319.0,STARLINK-5196,PAYLOAD,2023-09-02 19:22:55,14.98331679,0.0002497,70.0005,161.2454,263.4285,96.6589,-3.2152e-05,-4.77e-06,0.0,0 STARLINK-5196,1 55319U 23010BC  23245.80758999 -.00000477  00000-0 -32152-4 0  9997,2 55319  70.0005 161.2454 0002497 263.4285  96.6589 14.98331679 37006,6950.188,96.107,573.788,570.317,0.0
55319.0,STARLINK-5196,PAYLOAD,2023-09-03 00:11:20,14.98329326,0.0003379,70.001,160.7392,263.7989,96.2785,-6.6385e-05,-8.85e-06,0.0,0 STARLINK-5196,1 55319U 23010BC  23246.00787198 -.00000885  00000-0 -66385-4 0  9991,2 55319  70.0010 160.7392 0003379 263.7989  96.2785 14.98329326 35841,6950.195,96.107,574.408,569.712,0.0
55319.0,STARLINK-5196,PAYLOAD,2023-09-03 11:24:16,14.98328832,0.0003397,70.0013,159.5608,274.2677,85.8094,-6.648e-05,-8.86e-06,0.0,0 STARLINK-5196,1 55319U 23010BC  23246.47519287 -.00000886  00000-0 -66480-4 0  9991,2 55319  70.0013 159.5608 0003397 274.2677  85.8094 14.98328832 37100,6950.197,96.107,574.422,569.701,0.0
55319.0,STARLINK-5196,PAYLOAD,2023-09-04 00:13:21,14.9832676,0.0002654,70.0001,158.214,270.6968,89.3887,-0.00011667,-1.485e-05,0.0,0 STARLINK-5196,1 55319U 23010BC  23247.00927471 -.00001485  00000-0 -11667-3 0  9991,2 55319  70.0001 158.2140 0002654 270.6968  89.3887 14.98326760 35994,6950.203,96.107,573.912,570.223,0.0
55319.0,STARLINK-5196,PAYLOAD,2023-09-04 05:01:45,14.98330813,0.0003025,69.9999,157.708,272.0444,88.0369,-8.2676e-05,-1.079e-05,0.0,0 STARLINK-5196,1 55319U 23010BC  23247.20955100 -.00001079  00000-0 -82676-4 0  9991,2 55319  69.9999 157.7080 0003025 272.0444  88.0369 14.98330813 37214,6950.19,96.107,574.158,569.953,0.0
55319.0,STARLINK-5196,PAYLOAD,2023-09-04 17:50:47,14.98347314,0.0002538,69.9999,156.3634,268.1941,91.8927,0.00020748,2.385e-05,0.0,0 STARLINK-5196,1 55319U 23010BC  23247.74360950  .00002385  00000-0  20748-3 0  9993,2 55319  69.9999 156.3634 0002538 268.1941  91.8927 14.98347314 36103,6950.139,96.106,573.768,570.24,0.0
55319.0,STARLINK-5196,PAYLOAD,2023-09-05 03:27:35,14.98354412,0.0002605,70.0005,155.352,261.7044,98.3819,0.00027784,3.226e-05,0.0,0 STARLINK-5196,1 55319U 23010BC  23248.14415726  .00003226  00000-0  27784-3 0  9992,2 55319  70.0005 155.3520 0002605 261.7044  98.3819 14.98354412 36160,6950.117,96.105,573.793,570.172,0.0
55319.0,STARLINK-5196,PAYLOAD,2023-09-06 00:17:21,14.98330468,0.0001638,70.0008,153.1655,260.4591,99.6383,7.3145e-05,7.8e-06,0.0,0 STARLINK-5196,1 55319U 23010BC  23249.01205678  .00000780  00000-0  73145-4 0  9997,2 55319  70.0008 153.1655 0001638 260.4591  99.6383 14.98330468 36295,6950.191,96.107,573.195,570.918,0.0
55319.0,STARLINK-5196,PAYLOAD,2023-09-06 05:05:46,14.98322029,0.0003054,69.9996,152.6581,272.5733,87.5077,-5.7126e-05,-7.74e-06,0.0,0 STARLINK-5196,1 55319U 23010BC  23249.21234517 -.00000774  00000-0 -57126-4 0  9999,2 55319  69.9996 152.6581 0003054 272.5733  87.5077 14.98322029 36320,6950.218,96.108,574.205,569.96,0.0
55319.0,STARLINK-5196,PAYLOAD,2023-09-07 05:07:47,14.98336288,0.0003113,69.9996,150.1339,271.8844,88.1958,-0.00025237,-3.103e-05,0.0,0 STARLINK-5196,1 55319U 23010BC  23250.21373987 -.00003103  00000-0 -25237-3 0  9992,2 55319  69.9996 150.1339 0003113 271.8844  88.1958 14.98336288 36478,6950.173,96.107,574.202,569.875,0.0
55319.0,STARLINK-5196,PAYLOAD,2023-09-08 03:33:40,14.98323398,0.0003081,69.9996,147.7778,274.1902,85.8904,9.7825e-05,1.074e-05,0.0,0 STARLINK-5196,1 55319U 23010BC  23251.14838161  .00001074  00000-0  97825-4 0  9991,2 55319  69.9996 147.7778 0003081 274.1902  85.8904 14.98323398 37803,6950.213,96.107,574.22,569.937,0.0
55319.0,STARLINK-5196,PAYLOAD,2023-09-08 19:35:01,14.9832728,0.0003005,69.9998,146.095,272.1567,87.9248,1.3105e-05,6.3e-07,0.0,0 STARLINK-5196,1 55319U 23010BC  23251.81598499  .00000063  00000-0  13105-4 0  9998,2 55319  69.9998 146.0950 0003005 272.1567  87.9248 14.98327280 36717,6950.201,96.107,574.155,569.978,0.0
55319.0,STARLINK-5196,PAYLOAD,2023-09-09 10:00:13,14.98325594,0.0002949,69.9996,144.5789,269.5015,90.5806,5.1192e-05,5.18e-06,0.0,0 STARLINK-5196,1 55319U 23010BC  23252.41682505  .00000518  00000-0  51192-4 0  9990,2 55319  69.9996 144.5789 0002949 269.5015  90.5806 14.98325594 37999,6950.207,96.107,574.121,570.022,0.0
55319.0,STARLINK-5196,PAYLOAD,2023-09-10 02:01:34,14.98338112,0.0002808,69.9996,142.8957,266.7378,93.346,-0.00013476,-1.701e-05,0.0,0 STARLINK-5196,1 55319U 23010BC  23253.08442412 -.00001701  00000-0 -13476-3 0  9994,2 55319  69.9996 142.8957 0002808 266.7378  93.3460 14.98338112 36909,6950.168,96.106,573.984,570.081,0.0
55319.0,STARLINK-5196,PAYLOAD,2023-09-10 03:37:42,14.98349381,0.0002883,69.9996,142.7273,266.0859,93.9971,-0.00030138,-3.689e-05,0.0,0 STARLINK-5196,1 55319U 23010BC  23253.15118175 -.00003689  00000-0 -30138-3 0  9999,2 55319  69.9996 142.7273 0002883 266.0859  93.9971 14.98349381 38106,6950.133,96.106,574.002,569.994,0.0
55319.0,STARLINK-5196,PAYLOAD,2023-09-10 18:02:55,14.98329466,0.0002704,69.9999,141.2122,265.7329,94.3521,-5.8228e-05,-7.88e-06,0.0,0 STARLINK-5196,1 55319U 23010BC  23253.75202744 -.00000788  00000-0 -58228-4 0  9999,2 55319  69.9999 141.2122 0002704 265.7329  94.3521 14.98329466 37002,6950.195,96.107,573.939,570.18,0.0
55319.0,STARLINK-5196,PAYLOAD,2023-09-11 02:03:35,14.98327431,0.0002777,70.0,140.3712,259.1389,100.9458,-5.5084e-05,-7.5e-06,0.0,0 STARLINK-5196,1 55319U 23010BC  23254.08582870 -.00000750  00000-0 -55084-4 0  9993,2 55319  70.0000 140.3712 0002777 259.1389 100.9458 14.98327431 38246,6950.201,96.107,573.996,570.136,0.0
55319.0,STARLINK-5196,PAYLOAD,2023-09-11 18:04:56,14.98328888,0.0003019,69.9992,138.6869,270.4599,89.6214,4.0459e-05,3.9e-06,0.0,0 STARLINK-5196,1 55319U 23010BC  23254.75342594  .00000390  00000-0  40459-4 0  9992,2 55319  69.9992 138.6869 0003019 270.4599  89.6214 14.98328888 37154,6950.196,96.107,574.16,569.963,0.0
55319.0,STARLINK-5196,PAYLOAD,2023-09-12 02:05:35,14.9833453,0.0002859,69.9995,137.8455,268.3824,91.7007,8.3301e-05,9.01e-06,0.0,0 STARLINK-5196,1 55319U 23010BC  23255.08722073  .00000901  00000-0  83301-4 0  9994,2 55319  69.9995 137.8455 0002859 268.3824  91.7007 14.98334530 37208,6950.179,96.107,574.031,570.057,0.0
55319.0,STARLINK-5196,PAYLOAD,2023-09-12 18:06:56,14.98324106,0.0002941,69.9987,136.1612,272.0536,88.0286,0.00010079,1.11e-05,0.0,0 STARLINK-5196,1 55319U 23010BC  23255.75482552  .00001110  00000-0  10079-3 0  9997,2 55319  69.9987 136.1612 0002941 272.0536  88.0286 14.98324106 37307,6950.211,96.107,574.12,570.032,0.0
55319.0,STARLINK-5196,PAYLOAD,2023-09-12 21:19:13,14.98325085,0.0003076,69.9989,135.8253,275.2482,84.8326,9.8183e-05,1.079e-05,0.0,0 STARLINK-5196,1 55319U 23010BC  23255.88834562  .00001079  00000-0  98183-4 0  9990,2 55319  69.9989 135.8253 0003076 275.2482  84.8326 14.98325085 38511,6950.208,96.107,574.211,569.935,0.0
55319.0,STARLINK-5196,PAYLOAD,2023-09-13 02:07:36,14.98331689,0.0003222,69.9986,135.321,277.5184,82.5609,0.00016739,1.905e-05,0.0,0 STARLINK-5196,1 55319U 23010BC  23256.08861990  .00001905  00000-0  16739-3 0  9992,2 55319  69.9986 135.3210 0003222 277.5184  82.5609 14.98331689 37350,6950.188,96.107,574.292,569.813,0.0
55319.0,STARLINK-5196,PAYLOAD,2023-09-13 21:21:13,14.98336623,0.0002842,69.9991,133.3015,260.5761,99.5077,-1.7884e-05,-3.06e-06,0.0,0 STARLINK-5196,1 55319U 23010BC  23256.88973836 -.00000306  00000-0 -17884-4 0  9992,2 55319  69.9991 133.3015 0002842 260.5761  99.5077 14.98336623 38662,6950.172,96.107,574.013,570.062,0.0
55319.0,STARLINK-5196,PAYLOAD,2023-09-14 02:09:37,14.983378,0.0002967,69.9986,132.7957,268.303,91.7789,5.9307e-06,-2.2e-07,0.0,0 STARLINK-5196,1 55319U 23010BC  23257.09001666 -.00000022  00000-0  59307-5 0  9990,2 55319  69.9986 132.7957 0002967 268.3030  91.7789 14.98337800 37501,6950.169,96.106,574.096,569.972,0.0
